[
    {
      "CCSDS_CDM_VERS": "1.0",
      "CREATION_DATE": "2024-10-04T03:34:25.108",
      "ORIGINATOR": "CSpoc",
      "MESSAGE_ID": "7407_conj0_1338",
      "TCA": "2024-10-05T17:10:36.475",
      "MISS_DISTANCE": "14923",
      "SAT1_OBJECT": "OBJECT1",
      "SAT1_OBJECT_DESIGNATOR": "12345",
      "SAT1_CATALOG_NAME": "SATCAT",
      "SAT1_INTERNATIONAL_DESIGNATOR": "2019-030E",
      "SAT1_EPHEMERIS_NAME": "NONE",
      "SAT1_COVARIANCE_METHOD": "CALCULATED",
      "SAT1_MANEUVERABLE": "NO",
      "SAT1_REFERENCE_FRAME": "ITRF",
      "SAT1_X": "2569.097065",
      "SAT1_Y": "2245.654904",
      "SAT1_Z": "6281.497978",
      "SAT1_X_DOT": "4.418769571",
      "SAT1_Y_DOT": "4.833547743",
      "SAT1_Z_DOT": "-3.526774282",
      "SAT1_CR_R": "16.466809999999988",
      "SAT1_CT_R": "-124109.12391596804",
      "SAT1_CT_T": "18938.469999999998",
      "SAT1_CN_R": "15.272398047558655",
      "SAT1_CN_T": "2452.061015626061",
      "SAT1_CN_N": "3.1734509999999996",
      "SAT1_CRDOT_R": "0.02171203999999999",
      "SAT1_CRDOT_T": "-411.05878366331143",
      "SAT1_CRDOT_N": "-0.002652613771943246",
      "SAT1_CRDOT_RDOT": "0.02171203999999999",
      "SAT1_CTDOT_R": "-0.0002704973468097328",
      "SAT1_CTDOT_T": "0.06805182225726791",
      "SAT1_CTDOT_N": "-1.681653824600242e-05",
      "SAT1_CTDOT_RDOT": "-7.643144107555492e-08",
      "SAT1_CTDOT_TDOT": "1.6743309999999926e-05",
      "SAT1_CNDOT_R": "2.5077447026675033e-05",
      "SAT1_CNDOT_T": "-0.0002619771444092925",
      "SAT1_CNDOT_N": "1.5047272707261375e-05",
      "SAT1_CNDOT_RDOT": "4.0999922806762933e-10",
      "SAT1_CNDOT_TDOT": "-2.6774131967338362e-11",
      "SAT1_CNDOT_NDOT": "8.919619999999988e-06",
      "SAT2_OBJECT": "OBJECT1",
      "SAT2_OBJECT_DESIGNATOR": "67891",
      "SAT2_CATALOG_NAME": "SATCAT",
      "SAT2_INTERNATIONAL_DESIGNATOR": "2021-030E",
      "SAT2_EPHEMERIS_NAME": "NONE",
      "SAT2_COVARIANCE_METHOD": "CALCULATED",
      "SAT2_MANEUVERABLE": "YES",
      "SAT2_REFERENCE_FRAME": "ITRF",
      "SAT2_X": "4684.39413",
      "SAT2_Y": "-1485.2901920000004",
      "SAT2_Z": "26229.795955999998",
      "SAT2_X_DOT": "16.037539142",
      "SAT2_Y_DOT": "12646.667095485998",
      "SAT2_Z_DOT": "5518.846451436",
      "SAT2_CR_R": "71140.79",
      "SAT2_CT_R": "-173447055517246.4",
      "SAT2_CT_T": "2955756000.0",
      "SAT2_CN_R": "73262356.0198991",
      "SAT2_CN_T": "-16541557533.518105",
      "SAT2_CN_N": "2172.732",
      "SAT2_CRDOT_R": "3395.637",
      "SAT2_CRDOT_T": "-10036658308451.043",
      "SAT2_CRDOT_N": "26304.7422813006",
      "SAT2_CRDOT_RDOT": "3395.637",
      "SAT2_CTDOT_R": "-1420.343747333301",
      "SAT2_CTDOT_T": "17713388.417774897",
      "SAT2_CTDOT_N": "-48.19052769752484",
      "SAT2_CTDOT_RDOT": "-20.40639119554754",
      "SAT2_CTDOT_TDOT": "0.02723944",
      "SAT2_CNDOT_R": "2654.7336674472876",
      "SAT2_CNDOT_T": "86797934.59951398",
      "SAT2_CNDOT_N": "234.35235697465833",
      "SAT2_CNDOT_RDOT": "-99.86165235094477",
      "SAT2_CNDOT_TDOT": "-0.0027195986896554718",
      "SAT2_CNDOT_NDOT": "0.14935299999999999"
    }
]